HST                     
1 20580U 90037B   26187.43980133  .00005846  00000+0  18213-3 0  9999
2 20580  28.4736 308.9719 0001830  18.2005 341.8656 15.30991511791524
POLAR                   
1 23802U 96013A   26187.29294794  .00000200  00000+0  00000+0 0  9994
2 23802  79.8783 226.8256 6489683 208.4225  91.1204  1.29846107145103
SWAS                    
1 25560U 98071A   26188.02574944  .00001991  00000+0  12967-3 0  9990
2 25560  69.8940 176.3544 0008166 239.1922 120.8439 15.09716525500266
CXO                     
1 25867U 99040B   26190.53346780  .00000720  00000+0  00000+0 0  9991
2 25867  56.4882 116.0417 7806470 310.0470   0.4589  0.37804829 17409
XMM-NEWTON              
1 25989U 99066A   26189.29225867  .00000112  00000+0  00000+0 0  9992
2 25989  64.3787 282.7174 4670357  64.5370   0.0317  0.50122523 23116
TERRA                   
1 25994U 99068A   26188.15577171  .00000321  00000+0  74228-4 0  9992
2 25994  97.9444 236.9092 0003025 138.8672 306.0844 14.61119280412526
CLUSTER II-FM7 (SAMBA)  
1 26410U 00041A   26190.44891404  .00010356  00000+0  00000+0 0  9993
2 26410 149.8603  54.9303 9081540 272.3494 359.5434  0.44872728 20409
CLUSTER II-FM8 (TANGO)  
1 26464U 00045B   26186.44804170  .00007110  00000+0  00000+0 0  9999
2 26464 150.0949  55.2192 9081119 272.4711   2.3437  0.44414475 20395
ODIN                    
1 26702U 01007A   26187.98430022  .00262243  00000+0  10929-2 0  9998
2 26702  97.3761 230.3091 0005299 141.5779 218.5869 15.85006600392520
TIMED                   
1 26998U 01055B   26188.01250679  .00000961  00000+0  90752-4 0  9992
2 26998  74.0660 195.0990 0002002 309.1711  50.9295 14.95332579333780
CORIOLIS                
1 27640U 03001A   26187.92736674  .00000080  00000+0  57983-4 0  9994
2 27640  98.7129 194.5108 0014560 151.8272 208.3695 14.19950145217021
SORCE                   
1 27651U 03004A   26188.12944714  .00002371  00000+0  17977-3 0  9991
2 27651  39.9895 147.8891 0017890 199.5427 160.4683 15.03812808274902
MOST                    
1 27843U 03031D   26187.99275481  .00000052  00000+0  44006-4 0  9994
2 27843  98.7047 195.4422 0009596 188.6957 171.4056 14.21326557193521
SCISAT 1                
1 27858U 03036A   26187.94415225  .00000636  00000+0  85756-4 0  9997
2 27858  73.9299 132.0884 0007799 201.5001 158.5849 14.81471846234371
SWIFT                   
1 28485U 04047A   26186.87627307  .00061981  00000+0  47565-3 0  9999
2 28485  20.5532  40.5436 0000897 245.9890 114.0463 15.70286946189802
HINODE (SOLAR-B)        
1 29479U 06041A   26187.94345450  .00000618  00000+0  11454-3 0  9992
2 29479  98.0546 203.8046 0016435 221.6643 138.3312 14.68650644 57772
SHIJIAN-6 02A (SJ-6 02A)
1 29505U 06046A   26188.14312382  .00004450  00000+0  22748-3 0  9994
2 29505  97.6344 229.3609 0004602  81.2338 278.9416 15.17184595 75290
SHIJIAN-6 02B (SJ-6 02B)
1 29506U 06046B   26188.20682162  .00001438  00000+0  11593-3 0  9997
2 29506  97.7149 217.1419 0014388   2.4927 357.6367 15.01428691 73749
FGRST (GLAST)           
1 33053U 08029A   26188.06793252  .00002959  00000+0  10499-3 0  9992
2 33053  25.5824  66.4278 0007938 198.7126 161.3121 15.24044403998879
SDO                     
1 36395U 10005A   26187.29985258 -.00000073  00000+0  00000+0 0  9993
2 36395  34.6882  86.0538 0001597  54.6395 149.2448  1.00269873 60254
CRYOSAT 2               
1 36508U 10013A   26188.20619265  .00000143  00000+0  34872-4 0  9998
2 36508  92.0359 282.1683 0002270  97.5121 262.6344 14.51896432860989
X-SAT                   
1 37389U 11015C   26188.16380778  .00000133  00000+0  74184-4 0  9997
2 37389  98.3525 164.2367 0012834 286.9530  73.0243 14.25212459790521
GCOM-W1 (SHIZUKU)       
1 38337U 12025A   26187.74067376  .00000424  00000+0  10403-3 0  9998
2 38337  98.2023 128.0007 0001429  65.8323 355.4362 14.57143103751887
NUSTAR                  
1 38358U 12031A   26188.25002315  .00004266  00000+0  20921-3 0  9991
2 38358   6.0253 243.6412 0007352  42.5541 245.7724 15.08997307  1309
NEOSSAT                 
1 39089U 13009D   26187.44296067  .00000167  00000+0  72348-4 0  9995
2 39089  98.4186   7.0184 0010883 182.8450 177.2676 14.35833431699505
BRITE-AUSTRIA           
1 39091U 13009F   26187.43200206  .00000186  00000+0  77696-4 0  9999
2 39091  98.4004   6.3921 0010220 175.9573 184.1698 14.36550054699815
IRIS                    
1 39197U 13033A   26187.55887480  .00001036  00000+0  12463-3 0  9996
2 39197  97.9322  26.7749 0022974 254.9191 104.9482 14.85924866703251
HISAKI (SPRINT-A)       
1 39253U 13049A   26188.08752426  .00000102  00000+0  47966-4 0  9996
2 39253  29.7190 118.8323 0136918 178.1912 181.9173 13.55546235634120
CASSIOPE                
1 39265U 13055A   26188.15932662  .00032268 -49202-6  34667-3 0  9992
2 39265  80.9129  42.4325 0285035 355.1428   4.7045 15.27003664670712
STSAT-3                 
1 39422U 13066G   26188.15446056  .00002042  00000+0  15671-3 0  9992
2 39422  97.6205 157.7218 0009099 338.5233  21.5609 15.02864376687204
SWARM B                 
1 39451U 13067A   26188.16596014  .00003014  00000+0  10690-3 0  9992
2 39451  87.7455 336.2468 0002621  80.1013 280.0532 15.28681385686294
